IRIDIUM 921             
1 24873U 97034E   24179.19811608  .00035668  00000+0  88881-3 0  9997
2 24873  86.3806 283.1554 0004543 185.9621 174.1580 15.40066106477006
IRIDIUM 26              
1 24903U 97043A   24178.31527249  .00000499  00000+0  16364-3 0  9990
2 24903  86.3956 259.9239 0002198 100.0124 260.1321 14.36411588405649
IRIDIUM 22              
1 24907U 97043E   24178.65686417  .00000532  00000+0  17909-3 0  9998
2 24907  86.3959 263.0258 0002206  93.6617 266.4831 14.35300396405768
DUMMY MASS 1            
1 24925U 97048A   24178.88830194  .00000637  00000+0  69289-4 0  9996
2 24925  86.3345 299.5054 0005776 345.5265  14.5793 14.86257229452345
DUMMY MASS 2            
1 24926U 97048B   24178.72449450  .00000637  00000+0  69709-4 0  9998
2 24926  86.3346 301.1263 0007002 355.7075   4.4088 14.86014814452105
IRIDIUM 29              
1 24944U 97051A   24178.72648187  .00000572  00000+0  19105-3 0  9992
2 24944  86.3953 292.9039 0002079  87.7288 272.4147 14.35749003402257
IRIDIUM 33              
1 24946U 97051C   24178.69244255  .00000476  00000+0  16234-3 0  9991
2 24946  86.3869 292.1689 0009023 146.3411 213.8359 14.34398178401776
IRIDIUM 28              
1 24948U 97051E   24178.72406082  .00000579  00000+0  18993-3 0  9993
2 24948  86.3960 290.6224 0002289 104.2842 255.8610 14.36702850402793
